EUTELSAT 33F            
1 29270U 06032A   26171.25595686  .00000150  00000+0  00000+0 0  9998
2 29270   1.6707  82.2136 0003850   4.8174 306.6609  1.00272256 47337
JCSAT-3A                
1 29272U 06033A   26171.27478292 -.00000350  00000+0  00000+0 0  9999
2 29272   0.0096 334.2219 0002329 128.3580  32.8167  1.00270251 47776
KOREASAT 5 (MUGUNGWHA 5)
1 29349U 06034A   26171.27183624 -.00000363  00000+0  00000+0 0  9991
2 29349   1.7942  82.9599 0001372  50.5849 345.8571  1.00272720 41355
DIRECTV 9S              
1 29494U 06043A   26171.23030740 -.00000119  00000+0  00000+0 0  9997
2 29494   2.4297  80.8694 0005065  14.5132 154.7712  1.00271211 51414
OPTUS D1                
1 29495U 06043B   26171.20824073 -.00000189  00000+0  00000+0 0  9992
2 29495   3.0436  79.6224 0003484   1.0520  54.6928  1.00271391 72157
BADR-4                  
1 29526U 06051A   26171.25621686  .00000150  00000+0  00000+0 0  9993
2 29526   2.0138  81.0913 0004839 359.0702 314.9792  1.00272848 51296
WILDBLUE-1              
1 29643U 06054A   26171.22738216 -.00000055  00000+0  00000+0 0  9996
2 29643   2.8120  80.4465 0001459 359.8774 158.7621  1.00271638 53824
SKYNET 5A               
1 30794U 07007B   26170.76923227 -.00000279  00000+0  00000+0 0  9998
2 30794   5.3067  73.7105 0003786  18.1377 188.2627  1.00274097 70720
ANIK F3                 
1 31102U 07009A   26171.27438801 -.00000006  00000+0  00000+0 0  9998
2 31102   1.2066  83.8174 0002597   5.8234 158.8974  1.00273014 46594
ASTRA 1L                
1 31306U 07016A   26171.24460347 -.00000189  00000+0  00000+0 0  9991
2 31306   1.3307  81.5601 0005340  13.7534 236.7192  1.00270980 45012
GALAXY 17 (G-17)        
1 31307U 07016B   26171.22475840 -.00000212  00000+0  00000+0 0  9991
2 31307   2.9809  79.8648 0004768  19.8468 164.6257  1.00271467 69832
INTELSAT 11 (IS-11)     
1 32253U 07044B   26171.05797054 -.00000176  00000+0  00000+0 0  9997
2 32253   3.5740  78.6372 0002522  87.4130 236.3380  0.99049599 68477
WGS F1 (USA 195)        
1 32258U 07046A   26171.24096345 -.00000272  00000+0  00000+0 0  9997
2 32258   0.0383  86.6672 0000172 319.1570 266.8616  1.00270622 52368
SKYNET 5B               
1 32294U 07056B   26170.96924998  .00000133  00000+0  00000+0 0  9995
2 32294   5.2589  73.4727 0003907  10.0391 198.7550  1.00276078 68228
ASTRA 4A                
1 32299U 07057A   26171.03647711  .00000027  00000+0  00000+0 0  9997
2 32299   0.0205  37.0029 0002281  55.5875 193.5933  1.00272745 51673
HORIZONS-2              
1 32388U 07063B   26171.21919773 -.00000259  00000+0  00000+0 0  9991
2 32388   2.6109  80.5906 0003914   0.0151 192.9277  1.00272862 67846
THURAYA-3               
1 32404U 08001A   26171.12134348 -.00000030  00000+0  00000+0 0  9997
2 32404   5.9949  35.8105 0001598 152.5813 196.8472  1.00007771 67510
THOR 5                  
1 32487U 08006A   26171.24928350 -.00000014  00000+0  00000+0 0  9992
2 32487   0.0521 255.4404 0002444 198.7766 263.2281  1.00272539 67349
AMC-14                  
1 32708U 08011A   26171.12004348 -.00000068  00000+0  00000+0 0  9992
2 32708  24.0077  20.4835 0045448   7.3617 350.1570  1.00355445 68195
DIRECTV 11              
1 32729U 08013A   26170.94465848 -.00000131  00000+0  00000+0 0  9993
2 32729   0.0260 219.1273 0000180 197.2081  92.7255  1.00271356 45627
ICO G1                  
1 32763U 08016A   26171.23030740 -.00000179  00000+0  00000+0 0  9998
2 32763   5.5296  36.1236 0002242  41.1779 181.2061  1.00272691 66571
VINASAT-1               
1 32767U 08018A   26171.27556292 -.00000333  00000+0  00000+0 0  9995
2 32767   0.0156 318.8138 0001457 133.6851  47.1356  1.00272131 66628
STAR ONE C2             
1 32768U 08018B   26171.23654344 -.00000282  00000+0  00000+0 0  9992
2 32768   1.2498  82.4401 0002582  11.6932 194.4658  1.00272939 66686
AMOS-3                  
1 32794U 08022A   26171.18631704  .00000128  00000+0  00000+0 0  9993
2 32794   0.4641  86.1836 0002140  70.0111 220.3951  1.00478427 82365
GALAXY 18 (G-18)        
1 32951U 08024A   26171.18369637  .00000020  00000+0  00000+0 0  9994
2 32951   0.0224  69.3084 0002910  18.0126 124.2027  1.00271265 45887
ZHONGXING-9             
1 33051U 08028A   26171.12489684 -.00000254  00000+0  00000+0 0  9999
2 33051   0.7775  85.2993 0003821 341.8568 338.5213  1.00272592 66066
SKYNET 5C               
1 33055U 08030A   26171.17461698 -.00000146  00000+0  00000+0 0  9996
2 33055   3.7976  77.0079 0004087  19.5795 216.8699  1.00271683 65982
TURKSAT 3A              
1 33056U 08030B   26171.25769021  .00000141  00000+0  00000+0 0  9991
2 33056   0.0640  80.9679 0005124 352.7047 329.5367  1.00272302 52388
INTELSAT 25 (IS-25)     
1 33153U 08034A   26171.02822510 -.00000145  00000+0  00000+0 0  9996
2 33153   2.7184  80.3416 0003568  60.6156 246.4450  0.99033595 65714
ECHOSTAR 11             
1 33207U 08035A   26171.18721994 -.00000063  00000+0  00000+0 0  9997
2 33207   1.0140  84.1486 0002594 344.0792 157.7710  1.00270858 51244
SUPERBIRD-C2            
1 33274U 08038A   26171.27634292 -.00000311  00000+0  00000+0 0  9994
2 33274   2.3700  81.2275 0006093  26.2357  36.5044  1.00271998105769
INMARSAT 4-F3           
1 33278U 08039A   26171.23030740 -.00000147  00000+0  00000+0 0  9990
2 33278   4.2954  31.6317 0002744  59.8041 161.9229  1.00272523 46578
