OBJECT_NAME,OBJECT_ID,EPOCH,MEAN_MOTION,ECCENTRICITY,INCLINATION,RA_OF_ASC_NODE,ARG_OF_PERICENTER,MEAN_ANOMALY,EPHEMERIS_TYPE,CLASSIFICATION_TYPE,NORAD_CAT_ID,ELEMENT_SET_NO,REV_AT_EPOCH,BSTAR,MEAN_MOTION_DOT,MEAN_MOTION_DDOT
EUTELSAT 33F,2006-032A,2026-06-20T06:08:34.672704,1.00272256,.00038504,1.6707,82.2136,4.8174,306.6609,0,U,29270,999,4733,0,.15E-5,0
JCSAT-3A,2006-033A,2026-06-20T06:35:41.244288,1.00270251,.00023298,0.0096,334.2219,128.3580,32.8167,0,U,29272,999,4777,0,-.35E-5,0
KOREASAT 5 (MUGUNGWHA 5),2006-034A,2026-06-20T06:31:26.651136,1.00272720,.00013728,1.7942,82.9599,50.5849,345.8571,0,U,29349,999,4135,0,-.363E-5,0
DIRECTV 9S,2006-043A,2026-06-20T05:31:38.559360,1.00271211,.00050659,2.4297,80.8694,14.5132,154.7712,0,U,29494,999,5141,0,-.119E-5,0
OPTUS D1,2006-043B,2026-06-20T04:59:51.999072,1.00271391,.00034845,3.0436,79.6224,1.0520,54.6928,0,U,29495,999,7215,0,-.189E-5,0
BADR-4,2006-051A,2026-06-20T06:08:57.136704,1.00272848,.00048393,2.0138,81.0913,359.0702,314.9792,0,U,29526,999,5129,0,.15E-5,0
WILDBLUE-1,2006-054A,2026-06-20T05:27:25.818624,1.00271638,.00014593,2.8120,80.4465,359.8774,158.7621,0,U,29643,999,5382,0,-.55E-6,0
SKYNET 5A,2007-007B,2026-06-19T18:27:41.668128,1.00274097,.00037869,5.3067,73.7105,18.1377,188.2627,0,U,30794,999,7072,0,-.279E-5,0
ANIK F3,2007-009A,2026-06-20T06:35:07.124064,1.00273014,.00025976,1.2066,83.8174,5.8234,158.8974,0,U,31102,999,4659,0,-.6E-7,0
ASTRA 1L,2007-016A,2026-06-20T05:52:13.739808,1.00270980,.00053409,1.3307,81.5601,13.7534,236.7192,0,U,31306,999,4501,0,-.189E-5,0
GALAXY 17 (G-17),2007-016B,2026-06-20T05:23:39.125760,1.00271467,.00047684,2.9809,79.8648,19.8468,164.6257,0,U,31307,999,6983,0,-.212E-5,0
INTELSAT 11 (IS-11),2007-044B,2026-06-20T01:23:28.654656,0.99049599,.00025223,3.5740,78.6372,87.4130,236.3380,0,U,32253,999,6847,0,-.176E-5,0
WGS F1 (USA 195),2007-046A,2026-06-20T05:46:59.242080,1.00270622,.00001728,0.0383,86.6672,319.1570,266.8616,0,U,32258,999,5236,0,-.272E-5,0
SKYNET 5B,2007-056B,2026-06-19T23:15:43.198272,1.00276078,.00039076,5.2589,73.4727,10.0391,198.7550,0,U,32294,999,6822,0,.133E-5,0
ASTRA 4A,2007-057A,2026-06-20T00:52:31.622304,1.00272745,.00022812,0.0205,37.0029,55.5875,193.5933,0,U,32299,999,5167,0,.27E-6,0
HORIZONS-2,2007-063B,2026-06-20T05:15:38.683872,1.00272862,.00039144,2.6109,80.5906,0.0151,192.9277,0,U,32388,999,6784,0,-.259E-5,0
THURAYA-3,2008-001A,2026-06-20T02:54:44.076672,1.00007771,.00015981,5.9949,35.8105,152.5813,196.8472,0,U,32404,999,6751,0,-.3E-6,0
THOR 5,2008-006A,2026-06-20T05:58:58.094400,1.00272539,.00024445,0.0521,255.4404,198.7766,263.2281,0,U,32487,999,6734,0,-.14E-6,0
AMC-14,2008-011A,2026-06-20T02:52:51.756672,1.00355445,.00454484,24.0077,20.4835,7.3617,350.1570,0,U,32708,999,6819,0,-.68E-6,0
DIRECTV 11,2008-013A,2026-06-19T22:40:18.492672,1.00271356,.00001801,0.0260,219.1273,197.2081,92.7255,0,U,32729,999,4562,0,-.131E-5,0
ICO G1,2008-016A,2026-06-20T05:31:38.559360,1.00272691,.0002242,5.5296,36.1236,41.1779,181.2061,0,U,32763,999,6657,0,-.179E-5,0
VINASAT-1,2008-018A,2026-06-20T06:36:48.636288,1.00272131,.00014573,0.0156,318.8138,133.6851,47.1356,0,U,32767,999,6662,0,-.333E-5,0
STAR ONE C2,2008-018B,2026-06-20T05:40:37.353216,1.00272939,.00025822,1.2498,82.4401,11.6932,194.4658,0,U,32768,999,6668,0,-.282E-5,0
AMOS-3,2008-022A,2026-06-20T04:28:17.792256,1.00478427,.00021402,0.4641,86.1836,70.0111,220.3951,0,U,32794,999,8236,0,.128E-5,0
GALAXY 18 (G-18),2008-024A,2026-06-20T04:24:31.366368,1.00271265,.00029103,0.0224,69.3084,18.0126,124.2027,0,U,32951,999,4588,0,.2E-6,0
ZHONGXING-9,2008-028A,2026-06-20T02:59:51.086976,1.00272592,.00038211,0.7775,85.2993,341.8568,338.5213,0,U,33051,999,6606,0,-.254E-5,0
SKYNET 5C,2008-030A,2026-06-20T04:11:26.907072,1.00271683,.00040876,3.7976,77.0079,19.5795,216.8699,0,U,33055,999,6598,0,-.146E-5,0
TURKSAT 3A,2008-030B,2026-06-20T06:11:04.434144,1.00272302,.00051246,0.0640,80.9679,352.7047,329.5367,0,U,33056,999,5238,0,.141E-5,0
INTELSAT 25 (IS-25),2008-034A,2026-06-20T00:40:38.648640,0.99033595,.00035684,2.7184,80.3416,60.6156,246.4450,0,U,33153,999,6571,0,-.145E-5,0
ECHOSTAR 11,2008-035A,2026-06-20T04:29:35.802816,1.00270858,.00025946,1.0140,84.1486,344.0792,157.7710,0,U,33207,999,5124,0,-.63E-6,0
SUPERBIRD-C2,2008-038A,2026-06-20T06:37:56.028288,1.00271998,.00060937,2.3700,81.2275,26.2357,36.5044,0,U,33274,999,10576,0,-.311E-5,0
INMARSAT 4-F3,2008-039A,2026-06-20T05:31:38.559360,1.00272523,.00027446,4.2954,31.6317,59.8041,161.9229,0,U,33278,999,4657,0,-.147E-5,0
